[{"OBJECT_NAME":"STARLINK-1598","OBJECT_ID":"2020-057AV","EPOCH":"2026-03-09T20:27:31.815648","MEAN_MOTION":15.51269749,"ECCENTRICITY":0.00039579,"INCLINATION":53.0523,"RA_OF_ASC_NODE":282.8252,"ARG_OF_PERICENTER":206.2678,"MEAN_ANOMALY":153.813,"EPHEMERIS_TYPE":0,"CLASSIFICATION_TYPE":"U","NORAD_CAT_ID":46160,"ELEMENT_SET_NO":999,"REV_AT_EPOCH":30780,"BSTAR":0.0019256544,"MEAN_MOTION_DOT":0.00116093,"MEAN_MOTION_DDOT":0},{"OBJECT_NAME":"BREEZE-KM R\/B","OBJECT_ID":"2017-064B","EPOCH":"2026-03-09T23:37:28.009344","MEAN_MOTION":15.19279068,"ECCENTRICITY":0.01790923,"INCLINATION":98.7537,"RA_OF_ASC_NODE":74.9596,"ARG_OF_PERICENTER":357.1764,"MEAN_ANOMALY":2.8439,"EPHEMERIS_TYPE":0,"CLASSIFICATION_TYPE":"U","NORAD_CAT_ID":42970,"ELEMENT_SET_NO":999,"REV_AT_EPOCH":45981,"BSTAR":0.00038198457,"MEAN_MOTION_DOT":0.00012295,"MEAN_MOTION_DDOT":0}]
